*******************************************************************************
Ephemeris / WWW_USER Mon Mar 10 07:12:51 2025 Pasadena, USA      / Horizons    
*******************************************************************************
Target body name: (2018 OG)                       {source: JPL#12}
Center body name: Earth (399)                     {source: DE441}
Center-site name: Mauna Kea
*******************************************************************************
Start time      : A.D. 2018-Nov-28 03:51:00.0000 UT      
Stop  time      : A.D. 2018-Nov-28 16:28:00.0000 UT      
Step-size       : 1 minutes
*******************************************************************************
Target pole/equ : undefined
Target radii    : undefined                                                    
Center geodetic : 204.5278, 19.8260847, 4.21024   {E-lon(deg),Lat(deg),Alt(km)}
Center cylindric: 204.5278, 6006.35451, 2151.0229 {E-lon(deg),Dxy(km),Dz(km)}
Center pole/equ : ITRF93                          {East-longitude positive}
Center radii    : 6378.137, 6378.137, 6356.752 km {Equator_a, b, pole_c}       
Target primary  : Sun
Vis. interferer : MOON (R_eq= 1737.400) km        {source: DE441}
Rel. light bend : Sun                             {source: DE441}
Rel. lght bnd GM: 1.3271E+11 km^3/s^2                                          
Small-body perts: Yes                             {source: SB441-N16}
Atmos refraction: NO (AIRLESS)
RA format       : HMS
Time format     : CAL 
Calendar mode   : Mixed Julian/Gregorian
RTS-only print  : NO       
EOP file        : eop.250307.p250603                                           
EOP coverage    : DATA-BASED 1962-JAN-20 TO 2025-MAR-07. PREDICTS-> 2025-JUN-02
Units conversion: 1 au= 149597870.700 km, c= 299792.458 km/s, 1 day= 86400.0 s 
Table cut-offs 1: Elevation (-90.0deg=NO ),Airmass (>38.000=NO), Daylight (YES)
Table cut-offs 2: Solar elongation (  0.0,180.0=NO ),Local Hour Angle( 0.0=NO )
Table cut-offs 3: RA/DEC angular rate (     0.0=NO )                           
*******************************************************************************
Initial IAU76/J2000 heliocentric ecliptic osculating elements (au, days, deg.):
  EPOCH=  2458389.5 ! 2018-Sep-28.00 (TDB)         Residual RMS= .17662        
   EC= .5817218672922059   QR= .9873203561553971   TP= 2458366.942240702       
   OM= 131.0345430575832   W=  220.7633135105564   IN= 9.123860581277821       
  Equivalent ICRF heliocentric cartesian coordinates (au, au/d):
   X= 9.625437195102586E-01  Y= 3.686106454146055E-01  Z=-5.877845729655690E-03
  VX=-3.555418036941177E-03 VY= 1.979451357965206E-02 VZ= 6.659913004156397E-03
Asteroid physical parameters (km, seconds, rotational period in hours):        
   GM= n.a.                RAD= n.a.               ROTPER= n.a.                
   H= 23.6                 G= .150                 B-V= n.a.                   
                           ALBEDO= n.a.            STYP= n.a.                  
*******************************************************************************
 Date__(UT)__HR:MN     R.A._________(ICRF)_________DEC
******************************************************
$$SOE
 2018-Nov-28 14:06  m  05 54 43.316491 +00 28 25.72372
 2018-Nov-28 14:07  m  05 54 43.237267 +00 28 26.34717
 2018-Nov-28 14:08  m  05 54 43.158055 +00 28 26.97063
 2018-Nov-28 14:09  m  05 54 43.078856 +00 28 27.59409
 2018-Nov-28 14:10  m  05 54 42.999669 +00 28 28.21755
 2018-Nov-28 14:11  m  05 54 42.920494 +00 28 28.84102
 2018-Nov-28 14:12  m  05 54 42.841332 +00 28 29.46449
 2018-Nov-28 14:13  m  05 54 42.762182 +00 28 30.08797
 2018-Nov-28 14:14  m  05 54 42.683045 +00 28 30.71145
 2018-Nov-28 14:15  m  05 54 42.603921 +00 28 31.33494
 2018-Nov-28 14:16  m  05 54 42.524810 +00 28 31.95843
 2018-Nov-28 14:17  m  05 54 42.445711 +00 28 32.58192
 2018-Nov-28 14:18  m  05 54 42.366625 +00 28 33.20542
 2018-Nov-28 14:19  m  05 54 42.287553 +00 28 33.82892
 2018-Nov-28 14:20  m  05 54 42.208493 +00 28 34.45243
 2018-Nov-28 14:21  m  05 54 42.129447 +00 28 35.07594
 2018-Nov-28 14:22  m  05 54 42.050414 +00 28 35.69945
 2018-Nov-28 14:23  m  05 54 41.971394 +00 28 36.32297
 2018-Nov-28 14:24  m  05 54 41.892387 +00 28 36.94649
 2018-Nov-28 14:25  m  05 54 41.813394 +00 28 37.57002
 2018-Nov-28 14:26  m  05 54 41.734415 +00 28 38.19355
 2018-Nov-28 14:27  m  05 54 41.655449 +00 28 38.81709
 2018-Nov-28 14:28  m  05 54 41.576497 +00 28 39.44063
 2018-Nov-28 14:29  m  05 54 41.497558 +00 28 40.06417
 2018-Nov-28 14:30  m  05 54 41.418634 +00 28 40.68772
 2018-Nov-28 14:31  m  05 54 41.339723 +00 28 41.31128
 2018-Nov-28 14:32  m  05 54 41.260826 +00 28 41.93484
 2018-Nov-28 14:33  m  05 54 41.181943 +00 28 42.55840
 2018-Nov-28 14:34  m  05 54 41.103075 +00 28 43.18196
 2018-Nov-28 14:35  m  05 54 41.024220 +00 28 43.80553
 2018-Nov-28 14:36  m  05 54 40.945380 +00 28 44.42911
 2018-Nov-28 14:37  m  05 54 40.866554 +00 28 45.05269
 2018-Nov-28 14:38  m  05 54 40.787742 +00 28 45.67627
 2018-Nov-28 14:39  m  05 54 40.708945 +00 28 46.29986
 2018-Nov-28 14:40  m  05 54 40.630163 +00 28 46.92345
 2018-Nov-28 14:41  m  05 54 40.551395 +00 28 47.54705
 2018-Nov-28 14:42  m  05 54 40.472641 +00 28 48.17065
 2018-Nov-28 14:43  m  05 54 40.393903 +00 28 48.79426
 2018-Nov-28 14:44  m  05 54 40.315179 +00 28 49.41787
 2018-Nov-28 14:45  m  05 54 40.236470 +00 28 50.04148
 2018-Nov-28 14:46  m  05 54 40.157776 +00 28 50.66510
 2018-Nov-28 14:47  m  05 54 40.079096 +00 28 51.28872
 2018-Nov-28 14:48  m  05 54 40.000432 +00 28 51.91235
 2018-Nov-28 14:49  m  05 54 39.921783 +00 28 52.53598
 2018-Nov-28 14:50  m  05 54 39.843150 +00 28 53.15962
 2018-Nov-28 14:51  m  05 54 39.764531 +00 28 53.78326
 2018-Nov-28 14:52  m  05 54 39.685928 +00 28 54.40691
 2018-Nov-28 14:53  m  05 54 39.607340 +00 28 55.03056
 2018-Nov-28 14:54  m  05 54 39.528768 +00 28 55.65421
 2018-Nov-28 14:55  m  05 54 39.450211 +00 28 56.27787
 2018-Nov-28 14:56  m  05 54 39.371670 +00 28 56.90154
 2018-Nov-28 14:57  m  05 54 39.293144 +00 28 57.52520
 2018-Nov-28 14:58  m  05 54 39.214634 +00 28 58.14888
 2018-Nov-28 14:59  m  05 54 39.136140 +00 28 58.77255
 2018-Nov-28 15:00  m  05 54 39.057662 +00 28 59.39624
 2018-Nov-28 15:01  m  05 54 38.979199 +00 29 00.01992
 2018-Nov-28 15:02  m  05 54 38.900753 +00 29 00.64361
 2018-Nov-28 15:03  m  05 54 38.822322 +00 29 01.26731
 2018-Nov-28 15:04  m  05 54 38.743908 +00 29 01.89101
 2018-Nov-28 15:05  m  05 54 38.665509 +00 29 02.51471
 2018-Nov-28 15:06  m  05 54 38.587127 +00 29 03.13842
 2018-Nov-28 15:07  m  05 54 38.508762 +00 29 03.76214
 2018-Nov-28 15:08  m  05 54 38.430412 +00 29 04.38585
 2018-Nov-28 15:09  m  05 54 38.352079 +00 29 05.00958
 2018-Nov-28 15:10  m  05 54 38.273762 +00 29 05.63330
 2018-Nov-28 15:11  m  05 54 38.195462 +00 29 06.25704
 2018-Nov-28 15:12  m  05 54 38.117178 +00 29 06.88077
 2018-Nov-28 15:13  m  05 54 38.038911 +00 29 07.50451
 2018-Nov-28 15:14  m  05 54 37.960661 +00 29 08.12826
 2018-Nov-28 15:15  m  05 54 37.882428 +00 29 08.75201
 2018-Nov-28 15:16  m  05 54 37.804211 +00 29 09.37577
 2018-Nov-28 15:17  m  05 54 37.726011 +00 29 09.99953
 2018-Nov-28 15:18  m  05 54 37.647828 +00 29 10.62329
 2018-Nov-28 15:19  m  05 54 37.569662 +00 29 11.24706
 2018-Nov-28 15:20  m  05 54 37.491513 +00 29 11.87084
 2018-Nov-28 15:21 Am  05 54 37.413381 +00 29 12.49461
 2018-Nov-28 15:22 Am  05 54 37.335266 +00 29 13.11840
 2018-Nov-28 15:23 Am  05 54 37.257168 +00 29 13.74219
 2018-Nov-28 15:24 Am  05 54 37.179088 +00 29 14.36598
 2018-Nov-28 15:25 Am  05 54 37.101025 +00 29 14.98978
 2018-Nov-28 15:26 Am  05 54 37.022979 +00 29 15.61358
 2018-Nov-28 15:27 Am  05 54 36.944951 +00 29 16.23739
 2018-Nov-28 15:28 Am  05 54 36.866940 +00 29 16.86120
 2018-Nov-28 15:29 Am  05 54 36.788946 +00 29 17.48502
 2018-Nov-28 15:30 Am  05 54 36.710970 +00 29 18.10884
 2018-Nov-28 15:31 Am  05 54 36.633012 +00 29 18.73267
 2018-Nov-28 15:32 Am  05 54 36.555072 +00 29 19.35650
 2018-Nov-28 15:33 Am  05 54 36.477149 +00 29 19.98033
 2018-Nov-28 15:34 Am  05 54 36.399244 +00 29 20.60418
 2018-Nov-28 15:35 Am  05 54 36.321357 +00 29 21.22802
 2018-Nov-28 15:36 Am  05 54 36.243487 +00 29 21.85187
 2018-Nov-28 15:37 Am  05 54 36.165636 +00 29 22.47573
 2018-Nov-28 15:38 Am  05 54 36.087803 +00 29 23.09959
 2018-Nov-28 15:39 Am  05 54 36.009987 +00 29 23.72345
 2018-Nov-28 15:40 Am  05 54 35.932190 +00 29 24.34732
 2018-Nov-28 15:41 Am  05 54 35.854411 +00 29 24.97120
 2018-Nov-28 15:42 Am  05 54 35.776650 +00 29 25.59508
 2018-Nov-28 15:43 Am  05 54 35.698907 +00 29 26.21897
 2018-Nov-28 15:44 Am  05 54 35.621182 +00 29 26.84286
 2018-Nov-28 15:45 Am  05 54 35.543476 +00 29 27.46675
 2018-Nov-28 15:46 Am  05 54 35.465788 +00 29 28.09065
 2018-Nov-28 15:47 Am  05 54 35.388119 +00 29 28.71456
 2018-Nov-28 15:48 Nm  05 54 35.310468 +00 29 29.33847
 2018-Nov-28 15:49 Nm  05 54 35.232836 +00 29 29.96238
 2018-Nov-28 15:50 Nm  05 54 35.155222 +00 29 30.58630
 2018-Nov-28 15:51 Nm  05 54 35.077627 +00 29 31.21023
 2018-Nov-28 15:52 Nm  05 54 35.000050 +00 29 31.83416
 2018-Nov-28 15:53 Nm  05 54 34.922492 +00 29 32.45809
 2018-Nov-28 15:54 Nm  05 54 34.844953 +00 29 33.08203
 2018-Nov-28 15:55 Nm  05 54 34.767433 +00 29 33.70598
 2018-Nov-28 15:56 Nm  05 54 34.689931 +00 29 34.32993
 2018-Nov-28 15:57 Nm  05 54 34.612448 +00 29 34.95388
 2018-Nov-28 15:58 Nm  05 54 34.534985 +00 29 35.57784
 2018-Nov-28 15:59 Nm  05 54 34.457540 +00 29 36.20181
 2018-Nov-28 16:00 Nm  05 54 34.380114 +00 29 36.82578
 2018-Nov-28 16:01 Nm  05 54 34.302707 +00 29 37.44975
 2018-Nov-28 16:02 Nm  05 54 34.225320 +00 29 38.07373
 2018-Nov-28 16:03 Nm  05 54 34.147951 +00 29 38.69772
 2018-Nov-28 16:04 Nm  05 54 34.070602 +00 29 39.32171
 2018-Nov-28 16:05 Nm  05 54 33.993272 +00 29 39.94571
 2018-Nov-28 16:06 Nm  05 54 33.915961 +00 29 40.56971
 2018-Nov-28 16:07 Nm  05 54 33.838669 +00 29 41.19372
 2018-Nov-28 16:08 Nm  05 54 33.761397 +00 29 41.81773
